QIANFAN-49              
1 62250U 24232P   25324.69492199  .00000192  00000+0  27857-3 0  9996
2 62250  89.0045  43.4564 0012537 254.6498 105.3268 13.50977779 64869
QIANFAN-50              
1 62251U 24232Q   25324.71960353  .00000185  00000+0  26817-3 0  9999
2 62251  89.0051  43.4608 0014171 256.6066 103.3505 13.50978332 64896
QIANFAN-51              
1 62252U 24232R   25324.70314927  .00000186  00000+0  27007-3 0  9992
2 62252  89.0045  43.4577 0011596 260.1249  99.8593 13.50976072 64880
QIANFAN-52              
1 62253U 24232S   25324.73196918  .00000191  00000+0  27694-3 0  9992
2 62253  89.0041  43.3293 0013739 251.9337 108.0317 13.50977168 64972
QIANFAN-53              
1 62254U 24232T   25324.71136865  .00000160  00000+0  23005-3 0  9994
2 62254  89.0048  43.4342 0012605 252.8391 107.1380 13.50972314 64931
QIANFAN-54              
1 62255U 24232U   25324.75256400  .00000170  00000+0  24565-3 0  9990
2 62255  89.0039  43.1105 0000445   0.8668 359.2484 13.50972500 96446
QIANFAN-55              
1 62785U 25016A   25324.70476054  .00000097  00000+0  13178-3 0  9999
2 62785  88.9763 105.4827 0018473  56.0082 304.2821 13.50980899 44215
QIANFAN-56              
1 62786U 25016B   25324.72105338  .00000098  00000+0  13241-3 0  9998
2 62786  88.9737 105.3235 0017179  58.5234 301.7593 13.50981597 44266
